[{"OBJECT_NAME":"INTELSAT 10 (IS-10)","OBJECT_ID":"2001-019A","EPOCH":"2026-03-07T07:41:33.772128","MEAN_MOTION":0.99042039,"ECCENTRICITY":0.00058293,"INCLINATION":8.8325,"RA_OF_ASC_NODE":60.2898,"ARG_OF_PERICENTER":271.1897,"MEAN_ANOMALY":79.2321,"EPHEMERIS_TYPE":0,"CLASSIFICATION_TYPE":"U","NORAD_CAT_ID":26766,"ELEMENT_SET_NO":999,"REV_AT_EPOCH":4456,"BSTAR":0,"MEAN_MOTION_DOT":-2.6e-6,"MEAN_MOTION_DDOT":0},{"OBJECT_NAME":"INTELSAT 902 (IS-902)","OBJECT_ID":"2001-039A","EPOCH":"2026-03-07T07:02:38.643648","MEAN_MOTION":1.0027146,"ECCENTRICITY":0.00046023,"INCLINATION":5.86,"RA_OF_ASC_NODE":73.0233,"ARG_OF_PERICENTER":275.2606,"MEAN_ANOMALY":232.285,"EPHEMERIS_TYPE":0,"CLASSIFICATION_TYPE":"U","NORAD_CAT_ID":26900,"ELEMENT_SET_NO":999,"REV_AT_EPOCH":8967,"BSTAR":0,"MEAN_MOTION_DOT":-2.84e-6,"MEAN_MOTION_DDOT":0},{"OBJECT_NAME":"INTELSAT 904 (IS-904)","OBJECT_ID":"2002-007A","EPOCH":"2026-03-07T06:55:23.198880","MEAN_MOTION":1.00272964,"ECCENTRICITY":0.00063599,"INCLINATION":6.6659,"RA_OF_ASC_NODE":70.4049,"ARG_OF_PERICENTER":309.3298,"MEAN_ANOMALY":217.6263,"EPHEMERIS_TYPE":0,"CLASSIFICATION_TYPE":"U","NORAD_CAT_ID":27380,"ELEMENT_SET_NO":999,"REV_AT_EPOCH":5074,"BSTAR":0,"MEAN_MOTION_DOT":-2.26e-6,"MEAN_MOTION_DDOT":0},{"OBJECT_NAME":"DIRECTV 5 (TEMPO 1)","OBJECT_ID":"2002-023A","EPOCH":"2026-03-07T04:29:38.736960","MEAN_MOTION":1.00272797,"ECCENTRICITY":0.0003673,"INCLINATION":4.6172,"RA_OF_ASC_NODE":76.5846,"ARG_OF_PERICENTER":282.3913,"MEAN_ANOMALY":123.2322,"EPHEMERIS_TYPE":0,"CLASSIFICATION_TYPE":"U","NORAD_CAT_ID":27426,"ELEMENT_SET_NO":999,"REV_AT_EPOCH":8710,"BSTAR":0,"MEAN_MOTION_DOT":-5.9e-7,"MEAN_MOTION_DDOT":0},{"OBJECT_NAME":"INTELSAT 905 (IS-905)","OBJECT_ID":"2002-027A","EPOCH":"2026-03-05T04:29:38.664384","MEAN_MOTION":1.00273968,"ECCENTRICITY":0.00031737,"INCLINATION":6.4927,"RA_OF_ASC_NODE":71.0512,"ARG_OF_PERICENTER":279.539,"MEAN_ANOMALY":102.5539,"EPHEMERIS_TYPE":0,"CLASSIFICATION_TYPE":"U","NORAD_CAT_ID":27438,"ELEMENT_SET_NO":999,"REV_AT_EPOCH":5032,"BSTAR":0,"MEAN_MOTION_DOT":8.8e-7,"MEAN_MOTION_DDOT":0},{"OBJECT_NAME":"GALAXY 3C (G-3C)","OBJECT_ID":"2002-030A","EPOCH":"2026-03-07T08:03:37.319040","MEAN_MOTION":1.00272157,"ECCENTRICITY":0.00012347,"INCLINATION":3.4709,"RA_OF_ASC_NODE":79.4126,"ARG_OF_PERICENTER":23.377,"MEAN_ANOMALY":88.3211,"EPHEMERIS_TYPE":0,"CLASSIFICATION_TYPE":"U","NORAD_CAT_ID":27445,"ELEMENT_SET_NO":999,"REV_AT_EPOCH":4547,"BSTAR":0,"MEAN_MOTION_DOT":-1.54e-6,"MEAN_MOTION_DDOT":0},{"OBJECT_NAME":"INTELSAT 906 (IS-906)","OBJECT_ID":"2002-041A","EPOCH":"2026-03-07T13:49:21.944352","MEAN_MOTION":1.00273357,"ECCENTRICITY":0.00031765,"INCLINATION":5.5444,"RA_OF_ASC_NODE":74.1697,"ARG_OF_PERICENTER":262.6945,"MEAN_ANOMALY":99.9216,"EPHEMERIS_TYPE":0,"CLASSIFICATION_TYPE":"U","NORAD_CAT_ID":27513,"ELEMENT_SET_NO":999,"REV_AT_EPOCH":8601,"BSTAR":0,"MEAN_MOTION_DOT":1.2e-7,"MEAN_MOTION_DDOT":0},{"OBJECT_NAME":"GALAXY 13 (HORIZONS-1)","OBJECT_ID":"2003-044A","EPOCH":"2026-03-07T11:26:14.611200","MEAN_MOTION":1.00273954,"ECCENTRICITY":0.00021879,"INCLINATION":1.155,"RA_OF_ASC_NODE":85.245,"ARG_OF_PERICENTER":265.0053,"MEAN_ANOMALY":196.4919,"EPHEMERIS_TYPE":0,"CLASSIFICATION_TYPE":"U","NORAD_CAT_ID":27954,"ELEMENT_SET_NO":999,"REV_AT_EPOCH":4555,"BSTAR":0,"MEAN_MOTION_DOT":1.31e-6,"MEAN_MOTION_DDOT":0},{"OBJECT_NAME":"INTELSAT 10-02","OBJECT_ID":"2004-022A","EPOCH":"2026-03-07T07:04:07.361760","MEAN_MOTION":1.00273306,"ECCENTRICITY":0.00011199,"INCLINATION":0.017,"RA_OF_ASC_NODE":125.0473,"ARG_OF_PERICENTER":267.3299,"MEAN_ANOMALY":237.64,"EPHEMERIS_TYPE":0,"CLASSIFICATION_TYPE":"U","NORAD_CAT_ID":28358,"ELEMENT_SET_NO":999,"REV_AT_EPOCH":7953,"BSTAR":0,"MEAN_MOTION_DOT":-1.3e-7,"MEAN_MOTION_DDOT":0},{"OBJECT_NAME":"DIRECTV 8","OBJECT_ID":"2005-019A","EPOCH":"2026-03-07T06:30:25.592256","MEAN_MOTION":1.00272326,"ECCENTRICITY":0.0003342,"INCLINATION":0.018,"RA_OF_ASC_NODE":110.6828,"ARG_OF_PERICENTER":252.3262,"MEAN_ANOMALY":140.5135,"EPHEMERIS_TYPE":0,"CLASSIFICATION_TYPE":"U","NORAD_CAT_ID":28659,"ELEMENT_SET_NO":999,"REV_AT_EPOCH":7605,"BSTAR":0,"MEAN_MOTION_DOT":-1.0e-8,"MEAN_MOTION_DDOT":0},{"OBJECT_NAME":"GALAXY 28 (G-28)","OBJECT_ID":"2005-022A","EPOCH":"2026-03-07T09:51:02.060064","MEAN_MOTION":1.00271326,"ECCENTRICITY":0.00022983,"INCLINATION":3.0359,"RA_OF_ASC_NODE":80.2088,"ARG_OF_PERICENTER":269.4346,"MEAN_ANOMALY":296.1395,"EPHEMERIS_TYPE":0,"CLASSIFICATION_TYPE":"U","NORAD_CAT_ID":28702,"ELEMENT_SET_NO":999,"REV_AT_EPOCH":5095,"BSTAR":0,"MEAN_MOTION_DOT":-2.01e-6,"MEAN_MOTION_DDOT":0},{"OBJECT_NAME":"GALAXY 16 (G-16)","OBJECT_ID":"2006-023A","EPOCH":"2026-03-07T08:26:38.710752","MEAN_MOTION":1.00273164,"ECCENTRICITY":0.00026806,"INCLINATION":0.0363,"RA_OF_ASC_NODE":226.355,"ARG_OF_PERICENTER":127.6167,"MEAN_ANOMALY":198.7343,"EPHEMERIS_TYPE":0,"CLASSIFICATION_TYPE":"U","NORAD_CAT_ID":29236,"ELEMENT_SET_NO":999,"REV_AT_EPOCH":7195,"BSTAR":0,"MEAN_MOTION_DOT":-1.29e-6,"MEAN_MOTION_DDOT":0},{"OBJECT_NAME":"DIRECTV 9S","OBJECT_ID":"2006-043A","EPOCH":"2026-03-07T08:07:28.871040","MEAN_MOTION":1.0027246,"ECCENTRICITY":0.0003186,"INCLINATION":2.1576,"RA_OF_ASC_NODE":82.1645,"ARG_OF_PERICENTER":274.9456,"MEAN_ANOMALY":188.5978,"EPHEMERIS_TYPE":0,"CLASSIFICATION_TYPE":"U","NORAD_CAT_ID":29494,"ELEMENT_SET_NO":999,"REV_AT_EPOCH":5036,"BSTAR":0,"MEAN_MOTION_DOT":-1.15e-6,"MEAN_MOTION_DDOT":0},{"OBJECT_NAME":"GALAXY 17 (G-17)","OBJECT_ID":"2007-016B","EPOCH":"2026-03-07T07:54:38.721312","MEAN_MOTION":1.00271716,"ECCENTRICITY":0.00033293,"INCLINATION":2.7138,"RA_OF_ASC_NODE":81.2021,"ARG_OF_PERICENTER":271.4725,"MEAN_ANOMALY":206.0216,"EPHEMERIS_TYPE":0,"CLASSIFICATION_TYPE":"U","NORAD_CAT_ID":31307,"ELEMENT_SET_NO":999,"REV_AT_EPOCH":6878,"BSTAR":0,"MEAN_MOTION_DOT":-2.08e-6,"MEAN_MOTION_DDOT":0},{"OBJECT_NAME":"DIRECTV 10","OBJECT_ID":"2007-032A","EPOCH":"2026-03-07T07:12:44.037216","MEAN_MOTION":0.98338388,"ECCENTRICITY":0.00067192,"INCLINATION":0.1391,"RA_OF_ASC_NODE":100.0098,"ARG_OF_PERICENTER":276.3935,"MEAN_ANOMALY":286.2754,"EPHEMERIS_TYPE":0,"CLASSIFICATION_TYPE":"U","NORAD_CAT_ID":31862,"ELEMENT_SET_NO":999,"REV_AT_EPOCH":4456,"BSTAR":0,"MEAN_MOTION_DOT":-7.6e-7,"MEAN_MOTION_DDOT":0},{"OBJECT_NAME":"INTELSAT 11 (IS-11)","OBJECT_ID":"2007-044B","EPOCH":"2026-03-07T06:34:57.698688","MEAN_MOTION":0.99050314,"ECCENTRICITY":0.0004784,"INCLINATION":3.2997,"RA_OF_ASC_NODE":79.9238,"ARG_OF_PERICENTER":207.6613,"MEAN_ANOMALY":190.0084,"EPHEMERIS_TYPE":0,"CLASSIFICATION_TYPE":"U","NORAD_CAT_ID":32253,"ELEMENT_SET_NO":999,"REV_AT_EPOCH":6744,"BSTAR":0,"MEAN_MOTION_DOT":3.4e-7,"MEAN_MOTION_DDOT":0},{"OBJECT_NAME":"HORIZONS-2","OBJECT_ID":"2007-063B","EPOCH":"2026-03-07T08:18:38.763936","MEAN_MOTION":1.00271011,"ECCENTRICITY":0.00027656,"INCLINATION":2.3393,"RA_OF_ASC_NODE":81.915,"ARG_OF_PERICENTER":263.9315,"MEAN_ANOMALY":230.065,"EPHEMERIS_TYPE":0,"CLASSIFICATION_TYPE":"U","NORAD_CAT_ID":32388,"ELEMENT_SET_NO":999,"REV_AT_EPOCH":6679,"BSTAR":0,"MEAN_MOTION_DOT":-2.55e-6,"MEAN_MOTION_DDOT":0}]
