INTELSAT 10 (IS-10)     
1 26766U 01019A   26066.32052977 -.00000260  00000+0  00000+0 0  9990
2 26766   8.8325  60.2898 0005829 271.1897  79.2321  0.99042039 44566
INTELSAT 902 (IS-902)   
1 26900U 01039A   26066.29350282 -.00000284  00000+0  00000+0 0  9994
2 26900   5.8600  73.0233 0004602 275.2606 232.2850  1.00271460 89679
INTELSAT 904 (IS-904)   
1 27380U 02007A   26066.28846295 -.00000226  00000+0  00000+0 0  9992
2 27380   6.6659  70.4049 0006359 309.3298 217.6263  1.00272964 50749
DIRECTV 5 (TEMPO 1)     
1 27426U 02023A   26066.18725390 -.00000059  00000+0  00000+0 0  9996
2 27426   4.6172  76.5846 0003673 282.3913 123.2322  1.00272797 87102
INTELSAT 905 (IS-905)   
1 27438U 02027A   26064.18725306  .00000088  00000+0  00000+0 0  9999
2 27438   6.4927  71.0512 0003173 279.5390 102.5539  1.00273968 50320
GALAXY 3C (G-3C)        
1 27445U 02030A   26066.33584860 -.00000154  00000+0  00000+0 0  9993
2 27445   3.4709  79.4126 0001234  23.3770  88.3211  1.00272157 45476
INTELSAT 906 (IS-906)   
1 27513U 02041A   26066.57594843  .00000012  00000+0  00000+0 0  9991
2 27513   5.5444  74.1697 0003176 262.6945  99.9216  1.00273357 86016
GALAXY 13 (HORIZONS-1)  
1 27954U 03044A   26066.47655800  .00000131  00000+0  00000+0 0  9996
2 27954   1.1550  85.2450 0002187 265.0053 196.4919  1.00273954 45553
INTELSAT 10-02          
1 28358U 04022A   26066.29452965 -.00000013  00000+0  00000+0 0  9999
2 28358   0.0170 125.0473 0001119 267.3299 237.6400  1.00273306 79536
DIRECTV 8               
1 28659U 05019A   26066.27112954 -.00000001  00000+0  00000+0 0  9996
2 28659   0.0180 110.6828 0003342 252.3262 140.5135  1.00272326 76051
GALAXY 28 (G-28)        
1 28702U 05022A   26066.41044051 -.00000201  00000+0  00000+0 0  9999
2 28702   3.0359  80.2088 0002298 269.4346 296.1395  1.00271326 50958
GALAXY 16 (G-16)        
1 29236U 06023A   26066.35183693 -.00000129  00000+0  00000+0 0  9992
2 29236   0.0363 226.3550 0002680 127.6167 198.7343  1.00273164 71956
DIRECTV 9S              
1 29494U 06043A   26066.33852860 -.00000115  00000+0  00000+0 0  9992
2 29494   2.1576  82.1645 0003186 274.9456 188.5978  1.00272460 50364
GALAXY 17 (G-17)        
1 31307U 07016B   26066.32961483 -.00000208  00000+0  00000+0 0  9993
2 31307   2.7138  81.2021 0003329 271.4725 206.0216  1.00271716 68787
DIRECTV 10              
1 31862U 07032A   26066.30050969 -.00000076  00000+0  00000+0 0  9996
2 31862   0.1391 100.0098 0006719 276.3935 286.2754  0.98338388 44565
INTELSAT 11 (IS-11)     
1 32253U 07044B   26066.27427892  .00000034  00000+0  00000+0 0  9996
2 32253   3.2997  79.9238 0004784 207.6613 190.0084  0.99050314 67447
HORIZONS-2              
1 32388U 07063B   26066.34628199 -.00000255  00000+0  00000+0 0  9993
2 32388   2.3393  81.9150 0002765 263.9315 230.0650  1.00271011 66796
